2007 01 23 one_final mult_input_tles 
VANGUARD R/B
1 00016U 58002A   07020.87292147 +.00000205 +00000-0 +29969-3 0 05925
2 00016 034.2551 244.0293 2029992 125.3207 255.4450 10.47962053944937
VANGUARD R/B
1 00016U 58002A   06213.82113994 +.00000075 +00000-0 +12515-3 0 05356
2 00016 034.2564 020.0114 2024610 120.9643 260.5551 10.47910504926889
DELTA 1 R/B
1 00050U 60009B   07020.94251141 -.00000075 +00000-0 +10000-3 0 08824
2 00050 047.2293 197.3877 0114322 133.6821 227.3509 12.20048407072862
DELTA 1 R/B
1 00050U 60009B   06214.50766582 -.00000075  00000-0  10000-3 0  8066
2 00050 047.2348 009.3903 0113492 343.1997 016.5028 12.20046098 51937
THOR ABLESTAR R/B
1 00047U 60007C   07021.67439220 -.00000026  00000-0  19816-4 0   626
2 00047 066.6693 260.7129 0240973 278.4234 078.9623 14.39751877429801
THOR ABLESTAR R/B
1 00047U 60007C   06214.81337227 -.00000057  00000-0  12382-4 0  9241
2 00047 066.6664 358.5096 0228788 042.9596 318.9124 14.39713919405063
THOR AGENA D R/B
1 02255U 66056B   07020.75169254 +.00000002 +00000-0 +10000-3 0 09407
2 02255 086.9177 092.8956 0048320 209.7967 150.0084 07.94760538177530
THOR AGENA D R/B
1 02255U 66056B   06215.21084234  .00000002  00000-0  10000-3 0  8934
2 02255 086.9279 108.2644 0048158 351.0906 008.9043 07.94760562163989
DELTA 1 R/B(2)
1 01318U 65028B   07021.19649093 -.00000172  00000-0  10000-3 0  8090
2 01318 017.5428 077.3695 6935067 110.3778 332.2438 02.11813958108352
DELTA 1 R/B(2)
1 01318U 65028B   06212.96300480 -.00000163  00000-0  10000-3 0  7202
2 01318 017.4309 125.5302 6929293 021.5156 357.0697 02.11815503104689
TITAN 3C TRANSTAGE R/B
1 02222U 66053J   07021.10985643 -.00000055  00000-0  10000-3 0  5063
2 02222 005.3599 295.4773 0167576 139.8016 221.6500 01.06719700 54879
TITAN 3C TRANSTAGE R/B
1 02222U 66053J   06213.70474585 -.00000160 +00000-0 +10000-3 0 04515
2 02222 005.7395 296.9683 0168788 135.3582 226.1432 01.06720976053036
